{
  "type": "FeatureCollection",
  "features": [
    {
      "type": "Feature",
      "properties": {
        "norad_id": 40376,
        "name": "SMAP",
        "group": "resource",
        "lat": -64.79587942362724,
        "lon": 168.60402211580234,
        "alt_km": 690.343350723896,
        "timestamp": "2025-12-27T18:38:03.136517+00:00",
        "meta_object_name": "SMAP",
        "meta_object_id": "2015-003A",
        "meta_epoch": "2025-12-27T10:56:57.428736",
        "meta_mean_motion": 14.63363524,
        "meta_eccentricity": 0.0001246,
        "meta_inclination": 98.1291,
        "meta_ra_of_asc_node": 5.968,
        "meta_arg_of_pericenter": 92.2807,
        "meta_mean_anomaly": 267.8538,
        "meta_ephemeris_type": 0,
        "meta_classification_type": "U",
        "meta_norad_cat_id": 40376,
        "meta_element_set_no": 999,
        "meta_rev_at_epoch": 58250,
        "meta_bstar": 0.00013512,
        "meta_mean_motion_dot": 6.51e-06,
        "meta_mean_motion_ddot": 0,
        "tle_line1": "1 40376U 15003A   25361.45622024  .00000651  00000+0  13512-3 0  9997",
        "tle_line2": "2 40376  98.1291   5.9680 0001246  92.2807 267.8538 14.63363524582507"
      },
      "geometry": {
        "type": "Point",
        "coordinates": [
          168.60402211580234,
          -64.79587942362724
        ]
      }
    },
    {
      "type": "Feature",
      "properties": {
        "norad_id": 40536,
        "name": "KOMPSAT-3A",
        "group": "resource",
        "lat": -12.044050663795709,
        "lon": -21.38927837964649,
        "alt_km": 438.4666206493466,
        "timestamp": "2025-12-27T18:38:03.136528+00:00",
        "meta_object_name": "KOMPSAT-3A",
        "meta_object_id": "2015-014A",
        "meta_epoch": "2025-12-27T12:28:01.623072",
        "meta_mean_motion": 15.44503955,
        "meta_eccentricity": 0.0005696,
        "meta_inclination": 97.6807,
        "meta_ra_of_asc_node": 336.6892,
        "meta_arg_of_pericenter": 95.8159,
        "meta_mean_anomaly": 264.3738,
        "meta_ephemeris_type": 0,
        "meta_classification_type": "U",
        "meta_norad_cat_id": 40536,
        "meta_element_set_no": 999,
        "meta_rev_at_epoch": 59523,
        "meta_bstar": 0.00047424,
        "meta_mean_motion_dot": 0.00021937,
        "meta_mean_motion_ddot": 0,
        "tle_line1": "1 40536U 15014A   25361.51946323  .00021937  00000+0  47424-3 0  9994",
        "tle_line2": "2 40536  97.6807 336.6892 0005696  95.8159 264.3738 15.44503955595235"
      },
      "geometry": {
        "type": "Point",
        "coordinates": [
          -21.38927837964649,
          -12.044050663795709
        ]
      }
    },
    {
      "type": "Feature",
      "properties": {
        "norad_id": 40697,
        "name": "SENTINEL-2A",
        "group": "resource",
        "lat": 23.916117335094572,
        "lon": -102.06602425023603,
        "alt_km": 788.1411037128883,
        "timestamp": "2025-12-27T18:38:03.136538+00:00",
        "meta_object_name": "SENTINEL-2A",
        "meta_object_id": "2015-028A",
        "meta_epoch": "2025-12-27T11:11:44.559744",
        "meta_mean_motion": 14.308125,
        "meta_eccentricity": 0.0001048,
        "meta_inclination": 98.5722,
        "meta_ra_of_asc_node": 73.7929,
        "meta_arg_of_pericenter": 87.7307,
        "meta_mean_anomaly": 272.3996,
        "meta_ephemeris_type": 0,
        "meta_classification_type": "U",
        "meta_norad_cat_id": 40697,
        "meta_element_set_no": 999,
        "meta_rev_at_epoch": 54917,
        "meta_bstar": 0.0002016,
        "meta_mean_motion_dot": 4.85e-06,
        "meta_mean_motion_ddot": 0,
        "tle_line1": "1 40697U 15028A   25361.46648796  .00000485  00000+0  20160-3 0  9997",
        "tle_line2": "2 40697  98.5722  73.7929 0001048  87.7307 272.3996 14.30812500549171"
      },
      "geometry": {
        "type": "Point",
        "coordinates": [
          -102.06602425023603,
          23.916117335094572
        ]
      }
    },
    {
      "type": "Feature",
      "properties": {
        "norad_id": 40701,
        "name": "GAOFEN-8",
        "group": "resource",
        "lat": -78.33160583793622,
        "lon": -138.4772248988223,
        "alt_km": 463.75721015537965,
        "timestamp": "2025-12-27T18:38:03.136548+00:00",
        "meta_object_name": "GAOFEN-8",
        "meta_object_id": "2015-030A",
        "meta_epoch": "2025-12-27T12:44:44.437632",
        "meta_mean_motion": 15.39107662,
        "meta_eccentricity": 0.0011558,
        "meta_inclination": 97.69,
        "meta_ra_of_asc_node": 180.3985,
        "meta_arg_of_pericenter": 87.15,
        "meta_mean_anomaly": 273.1067,
        "meta_ephemeris_type": 0,
        "meta_classification_type": "U",
        "meta_norad_cat_id": 40701,
        "meta_element_set_no": 999,
        "meta_rev_at_epoch": 58498,
        "meta_bstar": 0.000731,
        "meta_mean_motion_dot": 0.00028372,
        "meta_mean_motion_ddot": 0,
        "tle_line1": "1 40701U 15030A   25361.53106988  .00028372  00000+0  73100-3 0  9993",
        "tle_line2": "2 40701  97.6900 180.3985 0011558  87.1500 273.1067 15.39107662584980"
      },
      "geometry": {
        "type": "Point",
        "coordinates": [
          -138.4772248988223,
          -78.33160583793622
        ]
      }
    },
    {
      "type": "Feature",
      "properties": {
        "norad_id": 40718,
        "name": "CARBONITE 1 (CBNT-1)",
        "group": "resource",
        "lat": 60.74317363863722,
        "lon": 168.29355406911108,
        "alt_km": 611.1867867331111,
        "timestamp": "2025-12-27T18:38:03.136558+00:00",
        "meta_object_name": "CARBONITE 1 (CBNT-1)",
        "meta_object_id": "2015-032D",
        "meta_epoch": "2025-12-27T11:52:43.349952",
        "meta_mean_motion": 14.82811972,
        "meta_eccentricity": 0.0015429,
        "meta_inclination": 97.6407,
        "meta_ra_of_asc_node": 181.8898,
        "meta_arg_of_pericenter": 134.4506,
        "meta_mean_anomaly": 225.7973,
        "meta_ephemeris_type": 0,
        "meta_classification_type": "U",
        "meta_norad_cat_id": 40718,
        "meta_element_set_no": 999,
        "meta_rev_at_epoch": 56389,
        "meta_bstar": 0.00014434,
        "meta_mean_motion_dot": 1.119e-05,
        "meta_mean_motion_ddot": 0,
        "tle_line1": "1 40718U 15032D   25361.49494618  .00001119  00000+0  14434-3 0  9993",
        "tle_line2": "2 40718  97.6407 181.8898 0015429 134.4506 225.7973 14.82811972563891"
      },
      "geometry": {
        "type": "Point",
        "coordinates": [
          168.29355406911108,
          60.74317363863722
        ]
      }
    },
    {
      "type": "Feature",
      "properties": {
        "norad_id": 40878,
        "name": "YAOGAN-27",
        "group": "resource",
        "lat": 67.68889136721616,
        "lon": -163.53330734869303,
        "alt_km": 1197.521556826876,
        "timestamp": "2025-12-27T18:38:03.136569+00:00",
        "meta_object_name": "YAOGAN-27",
        "meta_object_id": "2015-040A",
        "meta_epoch": "2025-12-27T12:36:11.656224",
        "meta_mean_motion": 13.16059662,
        "meta_eccentricity": 0.0007601,
        "meta_inclination": 100.1026,
        "meta_ra_of_asc_node": 350.4769,
        "meta_arg_of_pericenter": 250.2393,
        "meta_mean_anomaly": 109.7901,
        "meta_ephemeris_type": 0,
        "meta_classification_type": "U",
        "meta_norad_cat_id": 40878,
        "meta_element_set_no": 999,
        "meta_rev_at_epoch": 49508,
        "meta_bstar": -0.0010373,
        "meta_mean_motion_dot": -4.36e-06,
        "meta_mean_motion_ddot": 0,
        "tle_line1": "1 40878U 15040A   25361.52513491 -.00000436  00000+0 -10373-2 0  9994",
        "tle_line2": "2 40878 100.1026 350.4769 0007601 250.2393 109.7901 13.16059662495083"
      },
      "geometry": {
        "type": "Point",
        "coordinates": [
          -163.53330734869303,
          67.68889136721616
        ]
      }
    },
    {
      "type": "Feature",
      "properties": {
        "norad_id": 40894,
        "name": "GAOFEN-9 01",
        "group": "resource",
        "lat": -35.40396360726337,
        "lon": 45.565010337024766,
        "alt_km": 610.126909532888,
        "timestamp": "2025-12-27T18:38:03.136579+00:00",
        "meta_object_name": "GAOFEN-9 01",
        "meta_object_id": "2015-047A",
        "meta_epoch": "2025-12-27T12:18:52.921728",
        "meta_mean_motion": 14.82458943,
        "meta_eccentricity": 0.0027178,
        "meta_inclination": 97.6524,
        "meta_ra_of_asc_node": 39.8294,
        "meta_arg_of_pericenter": 346.3061,
        "meta_mean_anomaly": 13.7413,
        "meta_ephemeris_type": 0,
        "meta_classification_type": "U",
        "meta_norad_cat_id": 40894,
        "meta_element_set_no": 999,
        "meta_rev_at_epoch": 55475,
        "meta_bstar": 0.0001693,
        "meta_mean_motion_dot": 1.315e-05,
        "meta_mean_motion_ddot": 0,
        "tle_line1": "1 40894U 15047A   25361.51311252  .00001315  00000+0  16930-3 0  9990",
        "tle_line2": "2 40894  97.6524  39.8294 0027178 346.3061  13.7413 14.82458943554756"
      },
      "geometry": {
        "type": "Point",
        "coordinates": [
          45.565010337024766,
          -35.40396360726337
        ]
      }
    }
  ]
}